IRIDIUM 136             
1 42962U 17061H   24150.56756228  .00000155  00000+0  48250-4 0  9994
2 42962  86.3963 338.1075 0002016  79.3804 280.7618 14.34215229347534
